[
    {
        "CCSDS_OMM_VERS": "3.0",
        "COMMENT": "GENERATED VIA SPACE-TRACK.ORG API",
        "CREATION_DATE": "2025-04-14T03:05:54",
        "ORIGINATOR": "18 SPCS",
        "OBJECT_NAME": "COSMOS 2461 (GLONASS)",
        "OBJECT_ID": "2010-007B",
        "CENTER_NAME": "EARTH",
        "REF_FRAME": "TEME",
        "TIME_SYSTEM": "UTC",
        "MEAN_ELEMENT_THEORY": "SGP4",
        "EPOCH": "2025-04-13T11:46:58.918944",
        "MEAN_MOTION": "2.13106911",
        "ECCENTRICITY": "0.00211320",
        "INCLINATION": "65.6713",
        "RA_OF_ASC_NODE": "329.0379",
        "ARG_OF_PERICENTER": "1.5761",
        "MEAN_ANOMALY": "180.3820",
        "EPHEMERIS_TYPE": "0",
        "CLASSIFICATION_TYPE": "U",
        "NORAD_CAT_ID": "36401",
        "ELEMENT_SET_NO": "999",
        "REV_AT_EPOCH": "11766",
        "BSTAR": "0.00000000000000",
        "MEAN_MOTION_DOT": "-0.00000047",
        "MEAN_MOTION_DDOT": "0.0000000000000",
        "SEMIMAJOR_AXIS": "25507.633",
        "PERIOD": "675.717",
        "APOAPSIS": "19183.400",
        "PERIAPSIS": "19075.595",
        "OBJECT_TYPE": "PAYLOAD",
        "RCS_SIZE": "LARGE",
        "COUNTRY_CODE": "CIS",
        "LAUNCH_DATE": "2010-03-01",
        "SITE": "TTMTR",
        "DECAY_DATE": null,
        "FILE": "4701263",
        "GP_ID": "285534379",
        "TLE_LINE0": "0 COSMOS 2461 (GLONASS)",
        "TLE_LINE1": "1 36401U 10007B   25103.49095971 -.00000047  00000-0  00000-0 0  9999",
        "TLE_LINE2": "2 36401  65.6713 329.0379 0021132   1.5761 180.3820  2.13106911117663"
    }
]